STARLINK-1307           
1 45397U 20019AP  26068.48934038  .00024703  00000+0  43970-3 0  9992
2 45397  53.0547 131.7054 0002135  40.9100 319.2068 15.50016975330026
DEMO8 (TENZING)         
1 48951U 21059CA  26068.50149399  .00022523  00000+0  38915-3 0  9998
2 48951  97.7052 254.6062 0007009 356.8203   3.3002 15.50975268261833
