[{"OBJECT_NAME":"STARLINK-1307","OBJECT_ID":"2020-019AP","EPOCH":"2026-03-09T11:44:39.008832","MEAN_MOTION":15.50016975,"ECCENTRICITY":0.00021358,"INCLINATION":53.0547,"RA_OF_ASC_NODE":131.7054,"ARG_OF_PERICENTER":40.91,"MEAN_ANOMALY":319.2068,"EPHEMERIS_TYPE":0,"CLASSIFICATION_TYPE":"U","NORAD_CAT_ID":45397,"ELEMENT_SET_NO":999,"REV_AT_EPOCH":33002,"BSTAR":0.00043970395,"MEAN_MOTION_DOT":0.00024703,"MEAN_MOTION_DDOT":0},{"OBJECT_NAME":"DEMO8 (TENZING)","OBJECT_ID":"2021-059CA","EPOCH":"2026-03-09T12:02:09.080736","MEAN_MOTION":15.50975268,"ECCENTRICITY":0.00070099,"INCLINATION":97.7052,"RA_OF_ASC_NODE":254.6062,"ARG_OF_PERICENTER":356.8203,"MEAN_ANOMALY":3.3002,"EPHEMERIS_TYPE":0,"CLASSIFICATION_TYPE":"U","NORAD_CAT_ID":48951,"ELEMENT_SET_NO":999,"REV_AT_EPOCH":26183,"BSTAR":0.00038914706,"MEAN_MOTION_DOT":0.00022523,"MEAN_MOTION_DDOT":0}]
